{"type":"FeatureCollection","features":[{"type":"Feature","properties":{"name":"Netherlands"},"geometry":{"type":"MultiLineString","coordinates":[[[5.9939,50.7504],[5.7471,50.7596],[5.6937,50.7747],[5.6395,50.8436],[5.6476,50.8666],[5.75,50.9502],[5.7408,50.9599],[5.7498,50.9888],[5.8183,51.0864],[5.8271,51.1256],[5.7965,51.1531],[5.6088,51.1984],[5.5404,51.2393],[5.5088,51.275],[5.4769,51.2851],[5.3108,51.2597],[5.2142,51.279],[5.0999,51.3465],[5.0595,51.4531],[5.031,51.4691],[4.9439,51.4078],[4.848,51.4033],[4.8207,51.4121],[4.8105,51.4527],[4.7557,51.4911],[4.634,51.4217],[4.5888,51.4219],[4.5034,51.4747],[4.4409,51.4598],[4.3848,51.4276],[4.404,51.3671],[4.3737,51.356],[4.3045,51.3615],[4.0065,51.4432],[3.8219,51.4094],[3.6936,51.4499],[3.5869,51.4539],[3.5205,51.4862],[3.4489,51.5408],[3.4996,51.5767],[3.5486,51.5891],[3.7439,51.596],[3.886,51.5742],[4.1413,51.4558],[4.2741,51.4716],[4.2394,51.5039],[4.0805,51.5511],[4.0048,51.5958],[4.1826,51.6103],[4.1346,51.6729],[3.9469,51.8105],[4.0849,51.9941],[4.2088,52.059],[4.3763,52.1968],[4.4828,52.3092],[4.5621,52.4426],[4.6783,52.8098],[4.7687,52.9413],[4.888,52.9083],[5.0612,52.9606],[5.3584,53.0965],[5.446,53.2141],[5.532,53.2687],[5.8735,53.3752],[6.0622,53.4071],[6.8162,53.4412],[6.9682,53.3273],[7.058,53.3006],[7.1973,53.2823],[7.1899,52.9995],[7.1795,52.9662],[7.1171,52.887],[7.0509,52.7448],[7.033,52.6514],[7.0132,52.6335],[6.7484,52.6341],[6.7107,52.6179],[6.7054,52.5977],[6.7188,52.5736],[6.6916,52.5302],[6.7029,52.4992],[6.7488,52.464],[6.8325,52.4423],[6.9682,52.4441],[7.0019,52.419],[7.0352,52.3802],[7.0196,52.266],[6.9772,52.2055],[6.8551,52.1358],[6.7245,52.0802],[6.7156,52.0362],[6.8024,51.9802],[6.7418,51.9109],[6.5176,51.854],[6.425,51.8584],[6.3557,51.8247],[6.2971,51.8507],[6.1665,51.8808],[6.0076,51.834],[5.9487,51.8027],[5.9485,51.7624],[6.0527,51.6583],[6.0894,51.6378],[6.0911,51.5989],[6.1933,51.4889],[6.1988,51.45],[6.1662,51.3548],[6.0759,51.2241],[6.0824,51.18],[6.1369,51.1648],[6.13,51.1474],[5.9393,51.0408],[5.8684,51.0453],[5.8575,51.0301],[5.8947,50.9842],[6.0068,50.95],[6.0484,50.9049],[5.9939,50.7504]],[[4.2262,51.3865],[4.2114,51.3487],[4.1726,51.3071],[4.04,51.2471],[3.9021,51.2077],[3.8308,51.2126],[3.7557,51.2548],[3.6818,51.2757],[3.5803,51.2862],[3.472,51.2422],[3.4325,51.2458],[3.3801,51.2911],[3.3501,51.3777],[3.4258,51.3935],[3.5895,51.3994],[3.7165,51.3691],[3.8834,51.3545],[4.011,51.3959],[4.1115,51.3606],[4.2262,51.3865]],[[5.9293,53.4588],[5.732,53.4426],[5.6543,53.4665],[5.8763,53.4751],[5.9293,53.4588]],[[3.9491,51.7395],[4.0468,51.6849],[4.0751,51.6488],[3.951,51.6271],[3.819,51.694],[3.7318,51.6782],[3.699,51.7099],[3.6985,51.7297],[3.7891,51.7464],[3.9491,51.7395]],[[-68.2058,12.1446],[-68.2543,12.0321],[-68.2822,12.0823],[-68.2873,12.1717],[-68.3071,12.2067],[-68.3484,12.2281],[-68.3711,12.2575],[-68.3692,12.302],[-68.2195,12.2312],[-68.2058,12.1446]],[[-62.9375,17.4957],[-62.9617,17.475],[-62.9831,17.4769],[-62.9996,17.5304],[-62.9375,17.4957]],[[-63.2327,17.6231],[-63.2545,17.6287],[-63.2416,17.6518],[-63.2269,17.6341],[-63.2327,17.6231]]]}},{"type":"Feature","properties":{"name":"Germany"},"geometry":{"type":"MultiLineString","coordinates":[[[9.524,47.5242],[9.1828,47.6707],[8.8812,47.6564],[8.8312,47.7036],[8.7931,47.7166],[8.7548,47.698],[8.7283,47.7],[8.6179,47.7661],[8.5727,47.7756],[8.5099,47.7669],[8.4357,47.7313],[8.4034,47.6878],[8.4133,47.6627],[8.4518,47.6518],[8.5523,47.6591],[8.5705,47.6378],[8.5595,47.624],[8.4776,47.6127],[8.4301,47.5921],[8.3278,47.6069],[8.1982,47.6069],[8.0938,47.5762],[7.9271,47.5639],[7.698,47.5699],[7.5654,47.6065],[7.5294,47.6739],[7.5386,47.7736],[7.5933,47.9057],[7.6085,48.0026],[7.5842,48.0643],[7.6166,48.1568],[7.7057,48.28],[7.7651,48.41],[7.7948,48.5468],[7.838,48.636],[8.1403,48.8864],[8.1349,48.9736],[8.0013,49.0109],[7.6109,49.0618],[7.5255,49.0864],[7.4506,49.1522],[7.1999,49.1136],[7.1174,49.1275],[7.0367,49.1127],[7.0015,49.1799],[6.8912,49.2075],[6.8495,49.202],[6.7763,49.1542],[6.7354,49.1606],[6.5747,49.3197],[6.5343,49.3947],[6.4581,49.4429],[6.3822,49.4582],[6.3443,49.4527],[6.3484,49.5127],[6.3783,49.5996],[6.4067,49.645],[6.4848,49.7078],[6.4873,49.7985],[6.3246,49.8379],[6.2561,49.8722],[6.1382,49.9743],[6.1098,50.0344],[6.1083,50.0942],[6.1751,50.2327],[6.3645,50.3162],[6.3409,50.4518],[6.2949,50.4855],[6.203,50.4991],[6.1787,50.5225],[6.1685,50.5454],[6.2359,50.5967],[6.1545,50.6373],[6.1194,50.6792],[6.006,50.7322],[5.9939,50.7504],[6.0484,50.9049],[6.0068,50.95],[5.8947,50.9842],[5.8575,51.0301],[5.8684,51.0453],[5.9393,51.0408],[6.13,51.1474],[6.1369,51.1648],[6.0824,51.18],[6.0759,51.2241],[6.1662,51.3548],[6.1988,51.45],[6.1933,51.4889],[6.0911,51.5989],[6.0894,51.6378],[6.0527,51.6583],[5.9485,51.7624],[5.9487,51.8027],[6.0076,51.834],[6.1665,51.8808],[6.2971,51.8507],[6.3557,51.8247],[6.425,51.8584],[6.5176,51.854],[6.7418,51.9109],[6.8024,51.9802],[6.7156,52.0362],[6.7245,52.0802],[6.8551,52.1358],[6.9772,52.2055],[7.0196,52.266],[7.0352,52.3802],[7.0019,52.419],[6.9682,52.4441],[6.8325,52.4423],[6.7488,52.464],[6.7029,52.4992],[6.6916,52.5302],[6.7188,52.5736],[6.7054,52.5977],[6.7107,52.6179],[6.7484,52.6341],[7.0132,52.6335],[7.033,52.6514],[7.0509,52.7448],[7.1171,52.887],[7.1795,52.9662],[7.1899,52.9995],[7.1973,53.2823],[7.1521,53.327],[7.0533,53.3758],[7.0743,53.4776],[7.1071,53.557],[7.2064,53.6545],[7.2853,53.6813],[7.6292,53.6973],[8.0093,53.6907],[8.1671,53.5434],[8.1085,53.4677],[8.2008,53.4324],[8.2452,53.4453],[8.3016,53.5841],[8.3339,53.6062],[8.4514,53.5517],[8.4927,53.5144],[8.4952,53.3942],[8.5385,53.5569],[8.5062,53.6708],[8.5284,53.7811],[8.6189,53.875],[8.8978,53.8357],[9.2056,53.856],[9.322,53.8135],[9.5854,53.6005],[9.6731,53.5656],[9.784,53.5546],[9.6312,53.6002],[9.312,53.8591],[9.2164,53.8912],[9.0696,53.9009],[8.9781,53.9262],[8.9204,53.9653],[8.9035,54.0003],[8.9066,54.2608],[8.8516,54.2996],[8.7804,54.313],[8.736,54.2952],[8.6449,54.295],[8.6258,54.354],[8.648,54.3977],[8.8312,54.4275],[8.9519,54.4676],[8.9572,54.5383],[8.881,54.5939],[8.6823,54.7918],[8.6703,54.9034],[8.9029,54.8969],[9.1858,54.8447],[9.255,54.808],[9.342,54.8063],[9.6158,54.8554],[9.6612,54.8344],[9.7397,54.8255],[9.7459,54.8072],[9.8923,54.7806],[10.0222,54.6739],[10.0288,54.5813],[9.8687,54.4725],[10.1435,54.4884],[10.2124,54.4089],[10.3604,54.4383],[10.7315,54.3163],[10.956,54.3757],[11.0134,54.3792],[11.0644,54.2805],[11.0086,54.1812],[10.8107,54.0751],[10.8546,54.0098],[10.9178,53.9953],[11.1043,54.0092],[11.3996,53.9446],[11.4611,53.9647],[11.7006,54.1135],[11.7963,54.1455],[12.1113,54.1683],[12.1687,54.2259],[12.2963,54.2838],[12.5754,54.4674],[13.0286,54.411],[13.1475,54.2827],[13.448,54.1409],[13.7242,54.1532],[13.8223,54.019],[13.8655,53.8534],[14.025,53.7674],[14.2589,53.7296],[14.2987,53.5564],[14.4146,53.2835],[14.4109,53.199],[14.3686,53.1056],[14.2932,53.0268],[14.1937,52.9823],[14.1389,52.9329],[14.1286,52.8782],[14.2537,52.7825],[14.5141,52.6456],[14.6194,52.5285],[14.5697,52.4311],[14.5546,52.3597],[14.5739,52.3142],[14.6156,52.2776],[14.6799,52.25],[14.7054,52.2075],[14.6924,52.15],[14.7046,52.1102],[14.7525,52.0818],[14.6749,51.9048],[14.6017,51.8324],[14.6239,51.7708],[14.7249,51.6617],[14.7387,51.6271],[14.7109,51.5449],[14.7247,51.5239],[14.906,51.4633],[14.9355,51.4354],[15.0166,51.2527],[14.9639,51.0951],[14.9175,51.0087],[14.7975,50.8423],[14.7665,50.8183],[14.7233,50.8147],[14.6136,50.8556],[14.6238,50.9147],[14.5952,50.9186],[14.5597,50.9549],[14.5457,50.9939],[14.5073,51.0099],[14.3197,51.0378],[14.2832,51.0295],[14.2559,51.0019],[14.2994,50.9526],[14.3771,50.9141],[14.369,50.8987],[14.2018,50.8612],[13.8985,50.7613],[13.7014,50.7165],[13.5567,50.7046],[13.5266,50.6928],[13.4726,50.6169],[13.4361,50.6011],[13.3746,50.6217],[13.3061,50.5863],[13.2377,50.5768],[13.1812,50.5105],[13.0164,50.4904],[12.9668,50.4162],[12.9427,50.4064],[12.7654,50.431],[12.7064,50.4091],[12.549,50.3934],[12.4526,50.3498],[12.3586,50.2732],[12.2773,50.1814],[12.2312,50.2449],[12.1349,50.3109],[12.0992,50.311],[12.0897,50.2686],[12.1278,50.2134],[12.175,50.1758],[12.2078,50.0975],[12.2765,50.0423],[12.4576,49.9555],[12.512,49.8958],[12.4976,49.8531],[12.3905,49.7396],[12.5003,49.6397],[12.632,49.4612],[12.6812,49.4145],[12.8134,49.3293],[12.9167,49.3305],[13.0237,49.2601],[13.1405,49.1583],[13.2278,49.1117],[13.2888,49.0975],[13.3391,49.0608],[13.4012,48.9776],[13.4407,48.9556],[13.5477,48.9597],[13.7699,48.816],[13.8147,48.7669],[13.8029,48.7475],[13.7988,48.6217],[13.7854,48.5875],[13.6752,48.523],[13.4866,48.5818],[13.4599,48.5646],[13.4094,48.3941],[13.3746,48.3614],[13.3229,48.3312],[13.0821,48.2751],[12.8975,48.2037],[12.8143,48.1608],[12.7604,48.107],[12.7601,48.076],[12.9535,47.8906],[12.9542,47.8078],[12.8977,47.7219],[13.0336,47.6987],[13.0541,47.6551],[13.0479,47.5791],[13.0144,47.4781],[12.9681,47.4757],[12.8094,47.5422],[12.7828,47.5642],[12.7812,47.5904],[12.7962,47.607],[12.7714,47.6394],[12.6858,47.6693],[12.4829,47.6373],[12.4357,47.6661],[12.3632,47.6882],[12.2093,47.7183],[12.1969,47.7091],[12.2038,47.6467],[12.1856,47.6195],[11.7168,47.5835],[11.5739,47.5498],[11.393,47.4872],[11.3741,47.4603],[11.2979,47.4249],[11.2119,47.4136],[11.1912,47.4252],[11.042,47.3931],[10.9809,47.3981],[10.8939,47.4705],[10.8706,47.5008],[10.873,47.5202],[10.7416,47.5241],[10.6587,47.5472],[10.4828,47.5418],[10.4395,47.5516],[10.4039,47.417],[10.3691,47.3661],[10.3128,47.3134],[10.2406,47.2841],[10.183,47.2788],[10.2003,47.3634],[10.0663,47.3934],[10.0742,47.4285],[10.0599,47.4491],[9.9716,47.5053],[9.7489,47.5755],[9.6506,47.5259],[9.5489,47.534],[9.524,47.5242]],[[13.7092,54.3827],[13.7342,54.3154],[13.7073,54.2812],[13.5949,54.3382],[13.482,54.3374],[13.4146,54.2496],[13.3644,54.2458],[13.19,54.3256],[13.1621,54.3646],[13.1563,54.3969],[13.1813,54.509],[13.1767,54.5442],[13.2314,54.5828],[13.2399,54.6384],[13.3368,54.6971],[13.4228,54.6993],[13.4501,54.6496],[13.4912,54.6154],[13.636,54.577],[13.6576,54.5596],[13.6707,54.5354],[13.5805,54.464],[13.6019,54.4251],[13.7092,54.3827]],[[14.2114,53.9503],[14.1982,53.919],[14.2137,53.8708],[14.0483,53.8631],[13.9258,53.8791],[13.9021,53.939],[13.9217,53.9966],[13.8271,54.0596],[13.8277,54.1272],[14.2114,53.9503]],[[11.2828,54.418],[11.1293,54.416],[11.0707,54.456],[11.0117,54.4662],[11.0435,54.5155],[11.085,54.5334],[11.2336,54.5013],[11.2803,54.4384],[11.2828,54.418]],[[8.3077,54.787],[8.2847,54.7671],[8.2957,54.9083],[8.4052,55.0587],[8.4515,55.0554],[8.4041,55.0147],[8.3904,54.9863],[8.3712,54.9294],[8.3799,54.8999],[8.6296,54.8917],[8.6006,54.8654],[8.3474,54.8476],[8.3077,54.787]],[[8.5879,54.7127],[8.5489,54.6882],[8.4538,54.6911],[8.4004,54.7141],[8.4177,54.7387],[8.51,54.7603],[8.5734,54.7487],[8.5879,54.7127]]]}}]}